{"type": "FeatureCollection", "features": [ {"type": "Feature", "properties": {"norad_id": 33825, "name": "COSMOS 2251 DEB", "group": "cosmos-2251-debris", "lat": 57.60828112558236, "lon": -162.9251497004846, "alt_km": 671.5164359725204, "timestamp": "2025-12-04T09:47:37.912440+00:00", "meta": {"OBJECT_NAME": "COSMOS 2251 DEB", "OBJECT_ID": "1993-036BS", "EPOCH": "2025-12-03T15:51:30.966048", "MEAN_MOTION": 14.69629372, "ECCENTRICITY": 0.0084105, "INCLINATION": 73.9862, "RA_OF_ASC_NODE": 45.4436, "ARG_OF_PERICENTER": 14.7825, "MEAN_ANOMALY": 110.6596, "EPHEMERIS_TYPE": 0, "CLASSIFICATION_TYPE": "U", "NORAD_CAT_ID": 33825, "ELEMENT_SET_NO": 999, "REV_AT_EPOCH": 88746, "BSTAR": 0.0011877745, "MEAN_MOTION_DOT": 7.432e-05, "MEAN_MOTION_DDOT": 0}, "tle": {"line1": "1 33825U 93036BS  25337.66077507  .00007432  00000+0  11878-2 0  9992", "line2": "2 33825  73.9862  45.4436 0084105  14.7825 110.6596 14.69629372887469"}}, "geometry": {"type": "Point", "coordinates": [-162.9251497004846, 57.60828112558236]}}, {"type": "Feature", "properties": {"norad_id": 33826, "name": "COSMOS 2251 DEB", "group": "cosmos-2251-debris", "lat": -8.916727231598333, "lon": -111.8919118343382, "alt_km": 709.8868266967957, "timestamp": "2025-12-04T09:47:37.912450+00:00", "meta": {"OBJECT_NAME": "COSMOS 2251 DEB", "OBJECT_ID": "1993-036BT", "EPOCH": "2025-12-03T16:57:31.078944", "MEAN_MOTION": 14.51565138, "ECCENTRICITY": 0.00843766, "INCLINATION": 74.0655, "RA_OF_ASC_NODE": 66.8568, "ARG_OF_PERICENTER": 114.0294, "MEAN_ANOMALY": 10.0588, "EPHEMERIS_TYPE": 0, "CLASSIFICATION_TYPE": "U", "NORAD_CAT_ID": 33826, "ELEMENT_SET_NO": 999, "REV_AT_EPOCH": 87638, "BSTAR": 0.0022015897, "MEAN_MOTION_DOT": 9.214e-05, "MEAN_MOTION_DDOT": 0}, "tle": {"line1": "1 33826U 93036BT  25337.70660971  .00009214  00000+0  22016-2 0  9997", "line2": "2 33826  74.0655  66.8568 0084376 114.0294  10.0588 14.51565138876382"}}, "geometry": {"type": "Point", "coordinates": [-111.8919118343382, -8.916727231598333]}}, {"type": "Feature", "properties": {"norad_id": 33828, "name": "COSMOS 2251 DEB", "group": "cosmos-2251-debris", "lat": -52.10258367165479, "lon": -127.97695495045846, "alt_km": 731.7097390257586, "timestamp": "2025-12-04T09:47:37.912461+00:00", "meta": {"OBJECT_NAME": "COSMOS 2251 DEB", "OBJECT_ID": "1993-036BV", "EPOCH": "2025-12-03T21:02:45.489696", "MEAN_MOTION": 14.44281597, "ECCENTRICITY": 0.0029345, "INCLINATION": 74.0475, "RA_OF_ASC_NODE": 254.5694, "ARG_OF_PERICENTER": 328.8871, "MEAN_ANOMALY": 95.5387, "EPHEMERIS_TYPE": 0, "CLASSIFICATION_TYPE": "U", "NORAD_CAT_ID": 33828, "ELEMENT_SET_NO": 999, "REV_AT_EPOCH": 88185, "BSTAR": 0.00085680852, "MEAN_MOTION_DOT": 2.935e-05, "MEAN_MOTION_DDOT": 0}, "tle": {"line1": "1 33828U 93036BV  25337.87691539  .00002935  00000+0  85681-3 0  9992", "line2": "2 33828  74.0475 254.5694 0029345 328.8871  95.5387 14.44281597881850"}}, "geometry": {"type": "Point", "coordinates": [-127.97695495045846, -52.10258367165479]}}, {"type": "Feature", "properties": {"norad_id": 33830, "name": "COSMOS 2251 DEB", "group": "cosmos-2251-debris", "lat": -67.91389627885277, "lon": -158.17868642175014, "alt_km": 642.8957978942171, "timestamp": "2025-12-04T09:47:37.912471+00:00", "meta": {"OBJECT_NAME": "COSMOS 2251 DEB", "OBJECT_ID": "1993-036BX", "EPOCH": "2025-12-03T19:46:53.878944", "MEAN_MOTION": 14.76701064, "ECCENTRICITY": 0.00421652, "INCLINATION": 74.0333, "RA_OF_ASC_NODE": 247.8418, "ARG_OF_PERICENTER": 9.793, "MEAN_ANOMALY": 53.6736, "EPHEMERIS_TYPE": 0, "CLASSIFICATION_TYPE": "U", "NORAD_CAT_ID": 33830, "ELEMENT_SET_NO": 999, "REV_AT_EPOCH": 89340, "BSTAR": 0.0015648681, "MEAN_MOTION_DOT": 0.00011099, "MEAN_MOTION_DDOT": 0}, "tle": {"line1": "1 33830U 93036BX  25337.82423471  .00011099  00000+0  15649-2 0  9995", "line2": "2 33830  74.0333 247.8418 0042165   9.7930  53.6736 14.76701064893409"}}, "geometry": {"type": "Point", "coordinates": [-158.17868642175014, -67.91389627885277]}}, {"type": "Feature", "properties": {"norad_id": 33832, "name": "COSMOS 2251 DEB", "group": "cosmos-2251-debris", "lat": 69.51506450698845, "lon": -4.060559104930799, "alt_km": 701.0730897869271, "timestamp": "2025-12-04T09:47:37.912481+00:00", "meta": {"OBJECT_NAME": "COSMOS 2251 DEB", "OBJECT_ID": "1993-036BZ", "EPOCH": "2025-12-03T18:52:18.429888", "MEAN_MOTION": 14.60455194, "ECCENTRICITY": 0.0025656, "INCLINATION": 74.0554, "RA_OF_ASC_NODE": 227.0546, "ARG_OF_PERICENTER": 259.8856, "MEAN_ANOMALY": 175.6102, "EPHEMERIS_TYPE": 0, "CLASSIFICATION_TYPE": "U", "NORAD_CAT_ID": 33832, "ELEMENT_SET_NO": 999, "REV_AT_EPOCH": 88294, "BSTAR": 0.0020975265, "MEAN_MOTION_DOT": 0.00010199, "MEAN_MOTION_DDOT": 0}, "tle": {"line1": "1 33832U 93036BZ  25337.78632442  .00010199  00000+0  20975-2 0  9990", "line2": "2 33832  74.0554 227.0546 0025656 259.8856 175.6102 14.60455194882941"}}, "geometry": {"type": "Point", "coordinates": [-4.060559104930799, 69.51506450698845]}}, {"type": "Feature", "properties": {"norad_id": 33835, "name": "COSMOS 2251 DEB", "group": "cosmos-2251-debris", "lat": -65.23045448488669, "lon": -24.671568217909808, "alt_km": 684.8540060200039, "timestamp": "2025-12-04T09:47:37.912491+00:00", "meta": {"OBJECT_NAME": "COSMOS 2251 DEB", "OBJECT_ID": "1993-036CC", "EPOCH": "2025-12-02T19:28:26.300928", "MEAN_MOTION": 14.62061225, "ECCENTRICITY": 0.00557211, "INCLINATION": 74.0555, "RA_OF_ASC_NODE": 120.095, "ARG_OF_PERICENTER": 176.3218, "MEAN_ANOMALY": 313.2995, "EPHEMERIS_TYPE": 0, "CLASSIFICATION_TYPE": "U", "NORAD_CAT_ID": 33835, "ELEMENT_SET_NO": 999, "REV_AT_EPOCH": 88644, "BSTAR": 0.0016115926, "MEAN_MOTION_DOT": 8.252e-05, "MEAN_MOTION_DDOT": 0}, "tle": {"line1": "1 33835U 93036CC  25336.81141552  .00008252  00000+0  16116-2 0  9992", "line2": "2 33835  74.0555 120.0950 0055721 176.3218 313.2995 14.62061225886446"}}, "geometry": {"type": "Point", "coordinates": [-24.671568217909808, -65.23045448488669]}}, {"type": "Feature", "properties": {"norad_id": 33836, "name": "COSMOS 2251 DEB", "group": "cosmos-2251-debris", "lat": 60.720411487931386, "lon": 64.60159036116852, "alt_km": 610.0631952820377, "timestamp": "2025-12-04T09:47:37.912502+00:00", "meta": {"OBJECT_NAME": "COSMOS 2251 DEB", "OBJECT_ID": "1993-036CD", "EPOCH": "2025-12-03T22:13:35.406336", "MEAN_MOTION": 14.79335442, "ECCENTRICITY": 0.00224276, "INCLINATION": 73.9976, "RA_OF_ASC_NODE": 276.3373, "ARG_OF_PERICENTER": 132.7154, "MEAN_ANOMALY": 296.4113, "EPHEMERIS_TYPE": 0, "CLASSIFICATION_TYPE": "U", "NORAD_CAT_ID": 33836, "ELEMENT_SET_NO": 999, "REV_AT_EPOCH": 63958, "BSTAR": 0.0026773859, "MEAN_MOTION_DOT": 0.00020051, "MEAN_MOTION_DDOT": 0}, "tle": {"line1": "1 33836U 93036CD  25337.92610424  .00020051  00000+0  26774-2 0  9997", "line2": "2 33836  73.9976 276.3373 0022427 132.7154 296.4113 14.79335442639586"}}, "geometry": {"type": "Point", "coordinates": [64.60159036116852, 60.720411487931386]}}, {"type": "Feature", "properties": {"norad_id": 33837, "name": "COSMOS 2251 DEB", "group": "cosmos-2251-debris", "lat": -53.52134137676408, "lon": -85.90212908500786, "alt_km": 716.4747893662343, "timestamp": "2025-12-04T09:47:37.912512+00:00", "meta": {"OBJECT_NAME": "COSMOS 2251 DEB", "OBJECT_ID": "1993-036CE", "EPOCH": "2025-12-03T07:52:36.048000", "MEAN_MOTION": 14.50667168, "ECCENTRICITY": 0.0035633, "INCLINATION": 74.0128, "RA_OF_ASC_NODE": 73.3158, "ARG_OF_PERICENTER": 296.5894, "MEAN_ANOMALY": 63.1617, "EPHEMERIS_TYPE": 0, "CLASSIFICATION_TYPE": "U", "NORAD_CAT_ID": 33837, "ELEMENT_SET_NO": 999, "REV_AT_EPOCH": 88659, "BSTAR": 0.00042701, "MEAN_MOTION_DOT": 1.662e-05, "MEAN_MOTION_DDOT": 0}, "tle": {"line1": "1 33837U 93036CE  25337.32819500  .00001662  00000+0  42701-3 0  9994", "line2": "2 33837  74.0128  73.3158 0035633 296.5894  63.1617 14.50667168886592"}}, "geometry": {"type": "Point", "coordinates": [-85.90212908500786, -53.52134137676408]}}, {"type": "Feature", "properties": {"norad_id": 33838, "name": "COSMOS 2251 DEB", "group": "cosmos-2251-debris", "lat": 0.3443232585099698, "lon": -14.682531572217068, "alt_km": 739.940689039171, "timestamp": "2025-12-04T09:47:37.912521+00:00", "meta": {"OBJECT_NAME": "COSMOS 2251 DEB", "OBJECT_ID": "1993-036CF", "EPOCH": "2025-12-03T23:35:03.494112", "MEAN_MOTION": 14.48322939, "ECCENTRICITY": 0.0027387, "INCLINATION": 74.0356, "RA_OF_ASC_NODE": 166.2124, "ARG_OF_PERICENTER": 289.2516, "MEAN_ANOMALY": 193.4611, "EPHEMERIS_TYPE": 0, "CLASSIFICATION_TYPE": "U", "NORAD_CAT_ID": 33838, "ELEMENT_SET_NO": 999, "REV_AT_EPOCH": 88442, "BSTAR": 0.00066498527, "MEAN_MOTION_DOT": 2.471e-05, "MEAN_MOTION_DDOT": 0}, "tle": {"line1": "1 33838U 93036CF  25337.98267933  .00002471  00000+0  66499-3 0  9993", "line2": "2 33838  74.0356 166.2124 0027387 289.2516 193.4611 14.48322939884420"}}, "geometry": {"type": "Point", "coordinates": [-14.682531572217068, 0.3443232585099698]}}, {"type": "Feature", "properties": {"norad_id": 33839, "name": "COSMOS 2251 DEB", "group": "cosmos-2251-debris", "lat": -14.313201582640101, "lon": -141.6982411758343, "alt_km": 624.1886264830282, "timestamp": "2025-12-04T09:47:37.912532+00:00", "meta": {"OBJECT_NAME": "COSMOS 2251 DEB", "OBJECT_ID": "1993-036CG", "EPOCH": "2025-12-03T03:25:22.042272", "MEAN_MOTION": 14.64373974, "ECCENTRICITY": 0.00848223, "INCLINATION": 74.0399, "RA_OF_ASC_NODE": 224.9194, "ARG_OF_PERICENTER": 339.2319, "MEAN_ANOMALY": 177.3871, "EPHEMERIS_TYPE": 0, "CLASSIFICATION_TYPE": "U", "NORAD_CAT_ID": 33839, "ELEMENT_SET_NO": 999, "REV_AT_EPOCH": 89439, "BSTAR": 0.00040044968, "MEAN_MOTION_DOT": 2.197e-05, "MEAN_MOTION_DDOT": 0}, "tle": {"line1": "1 33839U 93036CG  25337.14261623  .00002197  00000+0  40045-3 0  9996", "line2": "2 33839  74.0399 224.9194 0084822 339.2319 177.3871 14.64373974894390"}}, "geometry": {"type": "Point", "coordinates": [-141.6982411758343, -14.313201582640101]}}]}